TOMORROW-S2             
1 60485U 24149T   26068.75188364  .00008133  00000+0  27683-3 0  9990
2 60485  97.3857 150.0385 0001648 234.3331 125.7757 15.30674935 86869
STARLINK-34771          
1 65078U 25167A   26068.15118229  .00033266  00000+0  11304-2 0  9998
2 65078  53.1615  26.6352 0001079  70.3215 289.7903 15.30197852 33430
