[{"OBJECT_NAME":"TOMORROW-S2","OBJECT_ID":"2024-149T","EPOCH":"2026-03-09T18:02:42.746496","MEAN_MOTION":15.30674935,"ECCENTRICITY":0.0001648,"INCLINATION":97.3857,"RA_OF_ASC_NODE":150.0385,"ARG_OF_PERICENTER":234.3331,"MEAN_ANOMALY":125.7757,"EPHEMERIS_TYPE":0,"CLASSIFICATION_TYPE":"U","NORAD_CAT_ID":60485,"ELEMENT_SET_NO":999,"REV_AT_EPOCH":8686,"BSTAR":0.00027683033,"MEAN_MOTION_DOT":8.133e-5,"MEAN_MOTION_DDOT":0},{"OBJECT_NAME":"STARLINK-34771","OBJECT_ID":"2025-167A","EPOCH":"2026-03-09T03:37:42.149856","MEAN_MOTION":15.30197852,"ECCENTRICITY":0.00010794,"INCLINATION":53.1615,"RA_OF_ASC_NODE":26.6352,"ARG_OF_PERICENTER":70.3215,"MEAN_ANOMALY":289.7903,"EPHEMERIS_TYPE":0,"CLASSIFICATION_TYPE":"U","NORAD_CAT_ID":65078,"ELEMENT_SET_NO":999,"REV_AT_EPOCH":3343,"BSTAR":0.0011303519,"MEAN_MOTION_DOT":0.00033266,"MEAN_MOTION_DDOT":0}]
